HORYU-2
1 38340U 12025D   14275.71277929  .00003135  00000-0  49728-3 0  9840
2 38340 098.2720 234.8171 0011983 189.1718 170.9307 14.72861584127622
RS-40
1 38735U 12041C   14275.05208157  .00000024  00000-0  10000-3 0  7012
2 38735 082.4753 220.9018 0017866 025.5523 334.6433 12.42561125 98854
PROITERES
1 38756U 12047B   14275.77881894  .00001140  00000-0  17664-3 0  2721
2 38756 098.2271 005.8309 0013039 045.6257 314.6017 14.75130355111043
BEESAT-3
1 39134U 13015E   14275.77708710  .00011067  00000-0  74697-3 0  7276
2 39134 064.8645 157.7523 0034653 289.3238 070.4170 15.06493234 79867
BEESAT-2
1 39136U 13015G   14274.89305485  .00009055  00000-0  62686-3 0  7080
2 39136 064.8657 161.3848 0034473 288.5863 071.1517 15.05701105 79713
LO-75
1 39382U 13064C   14274.63488353  .00441937  00000-0  33934-2 0  4365
2 39382 040.4926 164.8522 0023514 275.2570 084.5699 15.69559618 48607
ZACUBE-1
1 39417U 13066B   14274.84960995  .00002426  00000-0  33004-3 0  4282
2 39417 097.7620 341.7686 0060782 257.4258 102.0082 14.78401443 46456
TRITON-1
1 39427U 13066M   14274.76725437  .00001592  00000-0  27356-3 0  2806
2 39427 097.7532 335.3352 0116787 271.6501 087.1340 14.65627599 46003
DELFIN3XT
1 39428U 13066N   14275.11137908  .00002730  00000-0  47595-3 0  2843
2 39428 097.7480 334.5650 0126388 273.2362 085.4427 14.63683808 45974
GOMX-1
1 39430U 13066Q   14275.71971399  .00001558  00000-0  30332-3 0  8734
2 39430 097.7432 332.0359 0154984 280.2866 078.0913 14.57064008 45878
MO-76
1 39436U 13066W   14275.19973343  .00024386  00000-0  23621-2 0  3600
2 39436 097.7690 347.2708 0023947 252.1901 107.6983 14.92489047 46823
LO-74
1 39440U 13066AA  14275.04051213  .00002023  00000-0  30383-3 0  2755
2 39440 097.7572 339.4293 0082655 261.4648 097.7176 14.73325220 46319
PUCPSAT-1
1 39442U 13066AC  14275.00949655  .00003775  00000-0  42829-3 0  2741
2 39442 097.7724 345.8485 0033021 254.6650 105.0971 14.86535549 45499
SHINAISAT
1 39572U 14009A   14275.16382605  .00174778  00000-0  78575-3 0  3263
2 39572 064.9955 028.7058 0021838 282.8831 077.0094 15.83011711 33955
TEIKYOSAT
1 39576U 14009E   14275.85123470  .00376292  63702-4  88826-3 0  3577
2 39576 065.0024 021.5605 0021813 288.5970 071.2817 15.96101180 34153
CO-77
1 39577U 14009F   14244.78324653  .10543803  76292-5  32273-3 0  3795
2 39577 064.9920 123.7668 0014904 269.7208 091.1897 16.43552757 29380
SPROUT
1 39770U 14029E   14275.09947881  .00002338  00000-0  29533-3 0  1495
2 39770 097.8722 010.6274 0009277 333.5289 026.5478 14.82819159 19382
POPSAT-HIP1
1 40028U 14033U   14275.74559290  .00003303  00000-0  38952-3 0  3235
2 40028 097.9720 170.5842 0013580 309.8532 050.1505 14.85374333 15546
EO-80
1 40032U 14033Y   14275.69438863  .00003381  00000-0  40105-3 0  3134
2 40032 097.9714 170.4465 0011821 306.8541 053.1613 14.85142990 15542
VELOX-1
1 40057U 14034E   14275.71290814  .00002955  00000-0  45455-3 0  3103
2 40057 098.2432 344.5159 0011681 348.8377 011.2579 14.74241794 13927
DAURIA DX 1
1 40071U 14037C   14275.88784983  .00001441  00000-0  19970-3 0  2825
2 40071 098.3924 331.3634 0008888 355.2724 004.8405 14.79632874 12737
UKUBE-1
1 40074U 14037F   14275.83522356  .00002956  00000-0  39235-3 0  2847
2 40074 098.3936 331.4445 0005391 011.3983 348.7375 14.80622586 12734
CHASQUI-1
1 40117U 98067ET  14275.87769066  .00090653  00000-0  13005-2 0  1593
2 40117 051.6477 285.1108 0004131 124.0342 300.3996 15.55366543  7016
